0 AUREOLE 1
1 05729U 71119A   13282.48268298  .00006100  00000-0  49505-3 0  7569
2 05729 073.9633 043.0354 0848670 113.6819 255.5659 13.65317899  3009
0 AUREOLE 1
1 05729U 71119A   13283.50849396  .00005426  00000-0  44065-3 0  7574
2 05729 073.9631 041.3295 0848608 111.7656 257.5911 13.65328032  3140
0 AUREOLE 1
1 05729U 71119A   13286.14624926  .00004536  00000-0  36895-3 0  7592
2 05729 073.9636 036.9427 0848445 106.8337 262.7523 13.65350250  3506
0 AUREOLE 1
1 05729U 71119A   13287.46510502  .00004419  00000-0  35963-3 0  7609
2 05729 073.9642 034.7494 0848350 104.3686 265.3043 13.65360599  3680
0 AUREOLE 1
1 05729U 71119A   13288.49086998  .00006018  00000-0  48875-3 0  7614
2 05729 073.9646 033.0436 0848289 102.4511 267.2768 13.65373663  3826
0 AUREOLE 1
1 05729U 71119A   13289.51662485  .00004929  00000-0  40089-3 0  7628
2 05729 073.9650 031.3381 0848229 100.5320 269.2399 13.65383311  3960
0 AUREOLE 1
1 05729U 71119A   13290.76217244  .00004808  00000-0  39109-3 0  7634
2 05729 073.9651 029.2672 0848180 098.2008 271.6098 13.65393159  4136
0 AUREOLE 1
1 05729U 71119A   13291.78790805  .00004057  00000-0  33043-3 0  7644
2 05729 073.9650 027.5617 0848146 096.2817 273.5486 13.65400936  4272
0 AUREOLE 1
1 05729U 71119A   13292.81363557  .00004126  00000-0  33596-3 0  7650
2 05729 073.9648 025.8562 0848104 094.3628 275.4760 13.65408226  4414
0 AUREOLE 1
1 05729U 71119A   13293.83935585  .00004329  00000-0  35234-3 0  7666
2 05729 073.9645 024.1506 0848099 092.4456 277.3912 13.65414034  4551
0 AUREOLE 1
1 05729U 71119A   13295.15812852  .00004327  00000-0  35206-3 0  7672
2 05729 073.9643 021.9574 0848096 089.9813 279.8371 13.65421161  4739
0 AUREOLE 1
1 05729U 71119A   13296.18383356  .00004040  00000-0  32885-3 0  7681
2 05729 073.9641 020.2515 0848071 088.0640 281.7275 13.65430235  4877
